TDRS 3                  
1 19548U 88091B   26064.79815523 -.00000303  00000+0  00000+0 0  9996
2 19548  12.6797 341.6841 0044183 353.3967  66.2018  1.00259845124356
HST                     
1 20580U 90037B   26065.09294664  .00008390  00000+0  27790-3 0  9990
2 20580  28.4707  64.5335 0001795  90.2676 269.8125 15.29414630772760
TDRS 5                  
1 21639U 91054B   26065.52309884  .00000082  00000+0  00000+0 0  9996
2 21639  14.0838 354.5373 0010509 278.0351 272.4101  1.00267576126682
TDRS 6                  
1 22314U 93003B   26065.24170468 -.00000298  00000+0  00000+0 0  9996
2 22314  14.1809 357.8214 0005499 200.3379   6.8844  1.00278079121376
TDRS 7                  
1 23613U 95035B   26065.60770791 -.00000241  00000+0  00000+0 0  9999
2 23613  13.4196 348.8936 0008256  47.7375  75.5122  1.00275918112229
ISS (ZARYA)             
1 25544U 98067A   26065.54469341  .00009332  00000+0  18044-3 0  9991
2 25544  51.6317  87.9051 0008117 163.3368 196.7888 15.48477653555846
TERRA                   
1 25994U 99068A   26065.83852976  .00000593  00000+0  12991-3 0  9999
2 25994  97.9599 119.3821 0002530 158.2541 261.4297 14.61011205394660
TDRS 8                  
1 26388U 00034A   26065.38448926 -.00000198  00000+0  00000+0 0  9994
2 26388  12.5222  32.1791 0006147 309.1021  46.0277  1.00276130 94144
TIMED                   
1 26998U 01055B   26065.36702176  .00001903  00000+0  17752-3 0  9993
2 26998  74.0660  82.0081 0003007 279.5820  80.5025 14.95010007315456
AQUA                    
1 27424U 02022A   26065.87100705  .00001519  00000+0  31297-3 0  9992
2 27424  98.4172  33.1846 0000590  67.9692 313.8789 14.61969222268322
SORCE                   
1 27651U 03004A   26065.57640261  .00004619  00000+0  34660-3 0  9999
2 27651  39.9901 126.8460 0016240  31.2906 328.8852 15.03070095256453
AURA                    
1 28376U 04026A   26065.82085498  .00001514  00000+0  31743-3 0  9992
2 28376  98.3307  21.5052 0001020  80.9710 279.1605 14.61141483151269
SWIFT                   
1 28485U 04047A   26065.79408072  .00049609  00000+0  59800-3 0  9990
2 28485  20.5529 249.2327 0003496 355.9744   4.0672 15.58982582170819
THEMIS A                
1 30580U 07004A   26065.25422518 -.00000230  00000+0 -54814-2 0  9995
2 30580   6.7663 120.0375 8404682 177.7626 194.1104  0.87846926 40376
THEMIS D                
1 30797U 07004D   26065.13350147 -.00000281  00000+0  00000+0 0  9990
2 30797   6.6237  84.6439 8357840 215.9554 143.1881  0.87836061 40179
THEMIS E                
1 30798U 07004E   26065.60634919 -.00000286  00000+0  00000+0 0  9990
2 30798   4.1550  99.7835 8361481 201.8175 307.1009  0.87837758 65015
FGRST (GLAST)           
1 33053U 08029A   26065.60428909  .00005446  00000+0  20909-3 0  9991
2 33053  25.5813 196.4452 0008178 191.7998 168.2349 15.23303487980173
