[{"OBJECT_NAME":"TDRS 3","OBJECT_ID":"1988-091B","EPOCH":"2026-03-05T19:09:20.611872","MEAN_MOTION":1.00259845,"ECCENTRICITY":0.00441837,"INCLINATION":12.6797,"RA_OF_ASC_NODE":341.6841,"ARG_OF_PERICENTER":353.3967,"MEAN_ANOMALY":66.2018,"EPHEMERIS_TYPE":0,"CLASSIFICATION_TYPE":"U","NORAD_CAT_ID":19548,"ELEMENT_SET_NO":999,"REV_AT_EPOCH":12435,"BSTAR":0,"MEAN_MOTION_DOT":-3.03e-6,"MEAN_MOTION_DDOT":0},{"OBJECT_NAME":"HST","OBJECT_ID":"1990-037B","EPOCH":"2026-03-06T02:13:50.589696","MEAN_MOTION":15.2941463,"ECCENTRICITY":0.00017959,"INCLINATION":28.4707,"RA_OF_ASC_NODE":64.5335,"ARG_OF_PERICENTER":90.2676,"MEAN_ANOMALY":269.8125,"EPHEMERIS_TYPE":0,"CLASSIFICATION_TYPE":"U","NORAD_CAT_ID":20580,"ELEMENT_SET_NO":999,"REV_AT_EPOCH":77276,"BSTAR":0.00027789618,"MEAN_MOTION_DOT":8.39e-5,"MEAN_MOTION_DDOT":0},{"OBJECT_NAME":"TDRS 5","OBJECT_ID":"1991-054B","EPOCH":"2026-03-06T12:33:15.739776","MEAN_MOTION":1.00267576,"ECCENTRICITY":0.0010509,"INCLINATION":14.0838,"RA_OF_ASC_NODE":354.5373,"ARG_OF_PERICENTER":278.0351,"MEAN_ANOMALY":272.4101,"EPHEMERIS_TYPE":0,"CLASSIFICATION_TYPE":"U","NORAD_CAT_ID":21639,"ELEMENT_SET_NO":999,"REV_AT_EPOCH":12668,"BSTAR":0,"MEAN_MOTION_DOT":8.2e-7,"MEAN_MOTION_DDOT":0},{"OBJECT_NAME":"TDRS 6","OBJECT_ID":"1993-003B","EPOCH":"2026-03-06T05:48:03.284352","MEAN_MOTION":1.00278079,"ECCENTRICITY":0.00054994,"INCLINATION":14.1809,"RA_OF_ASC_NODE":357.8214,"ARG_OF_PERICENTER":200.3379,"MEAN_ANOMALY":6.8844,"EPHEMERIS_TYPE":0,"CLASSIFICATION_TYPE":"U","NORAD_CAT_ID":22314,"ELEMENT_SET_NO":999,"REV_AT_EPOCH":12137,"BSTAR":0,"MEAN_MOTION_DOT":-2.98e-6,"MEAN_MOTION_DDOT":0},{"OBJECT_NAME":"TDRS 7","OBJECT_ID":"1995-035B","EPOCH":"2026-03-06T14:35:05.963424","MEAN_MOTION":1.00275918,"ECCENTRICITY":0.00082566,"INCLINATION":13.4196,"RA_OF_ASC_NODE":348.8936,"ARG_OF_PERICENTER":47.7375,"MEAN_ANOMALY":75.5122,"EPHEMERIS_TYPE":0,"CLASSIFICATION_TYPE":"U","NORAD_CAT_ID":23613,"ELEMENT_SET_NO":999,"REV_AT_EPOCH":11222,"BSTAR":0,"MEAN_MOTION_DOT":-2.41e-6,"MEAN_MOTION_DDOT":0},{"OBJECT_NAME":"ISS (ZARYA)","OBJECT_ID":"1998-067A","EPOCH":"2026-03-06T13:04:21.510624","MEAN_MOTION":15.48477653,"ECCENTRICITY":0.00081171,"INCLINATION":51.6317,"RA_OF_ASC_NODE":87.9051,"ARG_OF_PERICENTER":163.3368,"MEAN_ANOMALY":196.7888,"EPHEMERIS_TYPE":0,"CLASSIFICATION_TYPE":"U","NORAD_CAT_ID":25544,"ELEMENT_SET_NO":999,"REV_AT_EPOCH":55584,"BSTAR":0.00018044032,"MEAN_MOTION_DOT":9.332e-5,"MEAN_MOTION_DDOT":0},{"OBJECT_NAME":"TERRA","OBJECT_ID":"1999-068A","EPOCH":"2026-03-06T20:07:28.971264","MEAN_MOTION":14.61011205,"ECCENTRICITY":0.000253,"INCLINATION":97.9599,"RA_OF_ASC_NODE":119.3821,"ARG_OF_PERICENTER":158.2541,"MEAN_ANOMALY":261.4297,"EPHEMERIS_TYPE":0,"CLASSIFICATION_TYPE":"U","NORAD_CAT_ID":25994,"ELEMENT_SET_NO":999,"REV_AT_EPOCH":39466,"BSTAR":0.00012991,"MEAN_MOTION_DOT":5.93e-6,"MEAN_MOTION_DDOT":0},{"OBJECT_NAME":"TDRS 8","OBJECT_ID":"2000-034A","EPOCH":"2026-03-06T09:13:39.872064","MEAN_MOTION":1.0027613,"ECCENTRICITY":0.00061473,"INCLINATION":12.5222,"RA_OF_ASC_NODE":32.1791,"ARG_OF_PERICENTER":309.1021,"MEAN_ANOMALY":46.0277,"EPHEMERIS_TYPE":0,"CLASSIFICATION_TYPE":"U","NORAD_CAT_ID":26388,"ELEMENT_SET_NO":999,"REV_AT_EPOCH":9414,"BSTAR":0,"MEAN_MOTION_DOT":-1.98e-6,"MEAN_MOTION_DDOT":0},{"OBJECT_NAME":"TIMED","OBJECT_ID":"2001-055B","EPOCH":"2026-03-06T08:48:30.680064","MEAN_MOTION":14.95010007,"ECCENTRICITY":0.00030074,"INCLINATION":74.066,"RA_OF_ASC_NODE":82.0081,"ARG_OF_PERICENTER":279.582,"MEAN_ANOMALY":80.5025,"EPHEMERIS_TYPE":0,"CLASSIFICATION_TYPE":"U","NORAD_CAT_ID":26998,"ELEMENT_SET_NO":999,"REV_AT_EPOCH":31545,"BSTAR":0.00017752497,"MEAN_MOTION_DOT":1.903e-5,"MEAN_MOTION_DDOT":0},{"OBJECT_NAME":"AQUA","OBJECT_ID":"2002-022A","EPOCH":"2026-03-06T20:54:15.009120","MEAN_MOTION":14.61969222,"ECCENTRICITY":5.9e-5,"INCLINATION":98.4172,"RA_OF_ASC_NODE":33.1846,"ARG_OF_PERICENTER":67.9692,"MEAN_ANOMALY":313.8789,"EPHEMERIS_TYPE":0,"CLASSIFICATION_TYPE":"U","NORAD_CAT_ID":27424,"ELEMENT_SET_NO":999,"REV_AT_EPOCH":26832,"BSTAR":0.00031297,"MEAN_MOTION_DOT":1.519e-5,"MEAN_MOTION_DDOT":0},{"OBJECT_NAME":"SORCE","OBJECT_ID":"2003-004A","EPOCH":"2026-03-06T13:50:01.185504","MEAN_MOTION":15.03070095,"ECCENTRICITY":0.00162407,"INCLINATION":39.9901,"RA_OF_ASC_NODE":126.846,"ARG_OF_PERICENTER":31.2906,"MEAN_ANOMALY":328.8852,"EPHEMERIS_TYPE":0,"CLASSIFICATION_TYPE":"U","NORAD_CAT_ID":27651,"ELEMENT_SET_NO":999,"REV_AT_EPOCH":25645,"BSTAR":0.00034659983,"MEAN_MOTION_DOT":4.619e-5,"MEAN_MOTION_DDOT":0},{"OBJECT_NAME":"AURA","OBJECT_ID":"2004-026A","EPOCH":"2026-03-06T19:42:01.870272","MEAN_MOTION":14.61141483,"ECCENTRICITY":0.000102,"INCLINATION":98.3307,"RA_OF_ASC_NODE":21.5052,"ARG_OF_PERICENTER":80.971,"MEAN_ANOMALY":279.1605,"EPHEMERIS_TYPE":0,"CLASSIFICATION_TYPE":"U","NORAD_CAT_ID":28376,"ELEMENT_SET_NO":999,"REV_AT_EPOCH":15126,"BSTAR":0.00031743,"MEAN_MOTION_DOT":1.514e-5,"MEAN_MOTION_DDOT":0},{"OBJECT_NAME":"SWIFT","OBJECT_ID":"2004-047A","EPOCH":"2026-03-06T19:03:28.574208","MEAN_MOTION":15.58982582,"ECCENTRICITY":0.0003496,"INCLINATION":20.5529,"RA_OF_ASC_NODE":249.2327,"ARG_OF_PERICENTER":355.9744,"MEAN_ANOMALY":4.0672,"EPHEMERIS_TYPE":0,"CLASSIFICATION_TYPE":"U","NORAD_CAT_ID":28485,"ELEMENT_SET_NO":999,"REV_AT_EPOCH":17081,"BSTAR":0.000598,"MEAN_MOTION_DOT":0.00049609,"MEAN_MOTION_DDOT":0},{"OBJECT_NAME":"THEMIS A","OBJECT_ID":"2007-004A","EPOCH":"2026-03-06T06:06:05.055552","MEAN_MOTION":0.87846926,"ECCENTRICITY":0.84046828,"INCLINATION":6.7663,"RA_OF_ASC_NODE":120.0375,"ARG_OF_PERICENTER":177.7626,"MEAN_ANOMALY":194.1104,"EPHEMERIS_TYPE":0,"CLASSIFICATION_TYPE":"U","NORAD_CAT_ID":30580,"ELEMENT_SET_NO":999,"REV_AT_EPOCH":4037,"BSTAR":-0.0054813821,"MEAN_MOTION_DOT":-2.3e-6,"MEAN_MOTION_DDOT":0},{"OBJECT_NAME":"THEMIS D","OBJECT_ID":"2007-004D","EPOCH":"2026-03-06T03:12:14.527008","MEAN_MOTION":0.87836061,"ECCENTRICITY":0.83578409,"INCLINATION":6.6237,"RA_OF_ASC_NODE":84.6439,"ARG_OF_PERICENTER":215.9554,"MEAN_ANOMALY":143.1881,"EPHEMERIS_TYPE":0,"CLASSIFICATION_TYPE":"U","NORAD_CAT_ID":30797,"ELEMENT_SET_NO":999,"REV_AT_EPOCH":4017,"BSTAR":0,"MEAN_MOTION_DOT":-2.81e-6,"MEAN_MOTION_DDOT":0},{"OBJECT_NAME":"THEMIS E","OBJECT_ID":"2007-004E","EPOCH":"2026-03-06T14:33:08.570016","MEAN_MOTION":0.87837758,"ECCENTRICITY":0.83614815,"INCLINATION":4.155,"RA_OF_ASC_NODE":99.7835,"ARG_OF_PERICENTER":201.8175,"MEAN_ANOMALY":307.1009,"EPHEMERIS_TYPE":0,"CLASSIFICATION_TYPE":"U","NORAD_CAT_ID":30798,"ELEMENT_SET_NO":999,"REV_AT_EPOCH":6501,"BSTAR":0,"MEAN_MOTION_DOT":-2.86e-6,"MEAN_MOTION_DDOT":0},{"OBJECT_NAME":"FGRST (GLAST)","OBJECT_ID":"2008-029A","EPOCH":"2026-03-06T14:30:10.577376","MEAN_MOTION":15.23303487,"ECCENTRICITY":0.00081787,"INCLINATION":25.5813,"RA_OF_ASC_NODE":196.4452,"ARG_OF_PERICENTER":191.7998,"MEAN_ANOMALY":168.2349,"EPHEMERIS_TYPE":0,"CLASSIFICATION_TYPE":"U","NORAD_CAT_ID":33053,"ELEMENT_SET_NO":999,"REV_AT_EPOCH":98017,"BSTAR":0.00020908899,"MEAN_MOTION_DOT":5.446e-5,"MEAN_MOTION_DDOT":0}]
